ONEWEB-0694             
1 56722U 23068N   24103.35362827  .00000036  00000+0  61361-4 0  9996
2 56722  87.9141  27.1413 0002404  82.9545 277.1859 13.16597456 47057
ONEWEB-0696             
1 56723U 23068P   24103.91724190  .00000065  00000+0  13895-3 0  9994
2 56723  87.9019  57.4825 0001660  76.6987 283.4328 13.15550224 44800
ONEWEB-0703             
1 56724U 23068Q   24103.92675167  .00000132  00000+0  31551-3 0  9999
2 56724  87.9022  57.5018 0000941  43.9067 316.2138 13.15549109 45396
ONEWEB-0721             
1 56725U 23068R   24104.15504777  .00001468  00000+0  17038-3 0  9991
2 56725  86.6827   3.2682 0012336 132.4609 227.7660 14.84640903 49557
